[
  {
    "name": "KUIPER-00121",
    "noradId": "65950",
    "line1": "1 65950U 25228D   26183.26780738 -.00000161  00000+0  78845-5 0  9990",
    "line2": "2 65950  51.8944 206.4229 0000372 141.7551 218.3437 14.79925946 40300"
  },
  {
    "name": "KUIPER-00122",
    "noradId": "65951",
    "line1": "1 65951U 25228E   26183.25702845  .00002860  00000+0  40392-3 0  9994",
    "line2": "2 65951  51.8972 216.4456 0000417  86.2819 273.8191 14.79933520 40169"
  },
  {
    "name": "KUIPER-00123",
    "noradId": "65952",
    "line1": "1 65952U 25228F   26183.29079132  .00000194  00000+0  54453-4 0  9997",
    "line2": "2 65952  51.8956 216.3095 0000436  71.2939 288.8070 14.79926640 40165"
  },
  {
    "name": "KUIPER-00124",
    "noradId": "65953",
    "line1": "1 65953U 25228G   26183.29886893  .00002492  00000+0  35573-3 0  9992",
    "line2": "2 65953  51.8962 208.7613 0000390  77.0196 283.0809 14.79938737 40271"
  },
  {
    "name": "KUIPER-00125",
    "noradId": "65954",
    "line1": "1 65954U 25228H   26183.24752688  .00000870  00000+0  14310-3 0  9996",
    "line2": "2 65954  51.8987 194.0280 0000478  96.2743 263.8274 14.79925178 40473"
  },
  {
    "name": "KUIPER-00126",
    "noradId": "65955",
    "line1": "1 65955U 25228J   26183.25972309  .00001290  00000+0  19820-3 0  9990",
    "line2": "2 65955  51.8969 213.9604 0000686  82.7286 277.3754 14.79922911 40192"
  },
  {
    "name": "KUIPER-00127",
    "noradId": "65956",
    "line1": "1 65956U 25228K   26183.25089992  .00002654  00000+0  37706-3 0  9996",
    "line2": "2 65956  51.8986 206.4724 0000490  76.4709 283.6308 14.79926708 40301"
  },
  {
    "name": "KUIPER-00128",
    "noradId": "65957",
    "line1": "1 65957U 25228L   26183.30157740  .00002487  00000+0  35503-3 0  9997",
    "line2": "2 65957  51.8987 206.3135 0000413  77.6674 282.4335 14.79935044 40307"
  },
  {
    "name": "KUIPER-00129",
    "noradId": "65958",
    "line1": "1 65958U 25228M   26183.27320729  .00002521  00000+0  35958-3 0  9996",
    "line2": "2 65958  51.8981 201.4204 0000409  77.4405 282.6604 14.79937236 40373"
  },
  {
    "name": "KUIPER-00130",
    "noradId": "65959",
    "line1": "1 65959U 25228N   26183.30427435  .00002483  00000+0  35458-3 0  9995",
    "line2": "2 65959  51.9002 203.8139 0000388  65.3408 294.7595 14.79939622 30639"
  },
  {
    "name": "KUIPER-00134",
    "noradId": "65960",
    "line1": "1 65960U 25228P   26183.10926249  .00050534  00000+0  11832-2 0  9991",
    "line2": "2 65960  51.8721 124.7366 0006662  11.5977 348.5164 15.41596956 41424"
  },
  {
    "name": "KUIPER-00135",
    "noradId": "65961",
    "line1": "1 65961U 25228Q   26183.27052775  .00002511  00000+0  35834-3 0  9995",
    "line2": "2 65961  51.9009 204.0176 0000440  86.8340 273.2673 14.79928944 40337"
  },
  {
    "name": "KUIPER-00136",
    "noradId": "65962",
    "line1": "1 65962U 25228R   26183.23943872  .00000174  00000+0  51889-4 0  9991",
    "line2": "2 65962  51.8986 201.6133 0000403  54.6241 305.4759 14.79927557 40364"
  },
  {
    "name": "KUIPER-00137",
    "noradId": "65963",
    "line1": "1 65963U 25228S   26183.24214206 -.00000448  00000+0 -29839-4 0  9991",
    "line2": "2 65963  51.9008 199.0924 0000471  72.6928 287.4086 14.79927033 40402"
  },
  {
    "name": "KUIPER-00138",
    "noradId": "65964",
    "line1": "1 65964U 25228T   26183.27860200  .00002430  00000+0  34766-3 0  9991",
    "line2": "2 65964  51.8966 196.3634 0000427  74.7083 285.3926 14.79930359 40448"
  },
  {
    "name": "KUIPER-00140",
    "noradId": "65965",
    "line1": "1 65965U 25228U   26183.20838034  .00002549  00000+0  36316-3 0  9999",
    "line2": "2 65965  51.8973 199.2629 0000454  79.8955 280.2059 14.79934951 40394"
  },
  {
    "name": "KUIPER-00141",
    "noradId": "65966",
    "line1": "1 65966U 25228V   26183.28129714  .00002336  00000+0  33532-3 0  9997",
    "line2": "2 65966  51.9006 193.9922 0000520  75.1593 284.9427 14.79923778 40475"
  },
  {
    "name": "KUIPER-00146",
    "noradId": "65967",
    "line1": "1 65967U 25228W   26183.24486181  .00002627  00000+0  37349-3 0  9991",
    "line2": "2 65967  51.9008 196.6635 0000416  80.0908 280.0102 14.79926767 40432"
  },
  {
    "name": "KUIPER-00149",
    "noradId": "65968",
    "line1": "1 65968U 25228X   26183.28400140  .00002460  00000+0  35154-3 0  9994",
    "line2": "2 65968  51.8991 191.3772 0000413  66.8382 293.2624 14.79935893 40516"
  },
  {
    "name": "KUIPER-00154",
    "noradId": "65969",
    "line1": "1 65969U 25228Y   26183.25293272  .00002516  00000+0  35889-3 0  9995",
    "line2": "2 65969  51.8971 189.0058 0000448  67.2537 292.8473 14.79932950 40542"
  },
  {
    "name": "KUIPER-00157",
    "noradId": "65970",
    "line1": "1 65970U 25228Z   26183.25019404  .00002360  00000+0  33829-3 0  9999",
    "line2": "2 65970  51.9002 191.6548 0000435  56.3416 303.7588 14.79950889 40500"
  },
  {
    "name": "KUIPER-00144",
    "noradId": "67133",
    "line1": "1 67133U 25301A   26182.96405574  .00001257  00000+0  19381-3 0  9999",
    "line2": "2 67133  51.9013 270.2969 0000633  96.2891 263.8143 14.79930056 30793"
  },
  {
    "name": "KUIPER-00164",
    "noradId": "67134",
    "line1": "1 67134U 25301B   26182.50505273  .00002085  00000+0  32622-3 0  9990",
    "line2": "2 67134  51.9035 284.4148 0000638 284.4834  75.6056 14.76611187 30731"
  },
  {
    "name": "KUIPER-00175",
    "noradId": "67135",
    "line1": "1 67135U 25301C   26181.96147916 -.00004676  00000+0 -42932-3 0  9991",
    "line2": "2 67135  51.8949 270.0550 0003065  61.1549 298.9726 14.92302792 30789"
  },
  {
    "name": "KUIPER-00179",
    "noradId": "67136",
    "line1": "1 67136U 25301D   26182.68313911  .00001961  00000+0  28610-3 0  9991",
    "line2": "2 67136  51.8974 281.5136 0000615 105.2340 254.8691 14.79933119 30793"
  },
  {
    "name": "KUIPER-00181",
    "noradId": "67137",
    "line1": "1 67137U 25301E   26183.00731071  .00004696  00000+0  64583-3 0  9997",
    "line2": "2 67137  51.9027 292.6121 0000795  78.8207 281.2845 14.79846028 30648"
  },
  {
    "name": "KUIPER-00183",
    "noradId": "67138",
    "line1": "1 67138U 25301F   26182.93155423  .00004113  00000+0  41716-3 0  9997",
    "line2": "2 67138  51.8935 266.4205 0009829  83.8483 276.3604 14.92786365 31019"
  },
  {
    "name": "KUIPER-00184",
    "noradId": "67139",
    "line1": "1 67139U 25301G   26182.99241982  .00003645  00000+0  50676-3 0  9994",
    "line2": "2 67139  51.8997 275.1485 0000401 101.7177 258.3830 14.79935996 31003"
  },
  {
    "name": "KUIPER-00186",
    "noradId": "67140",
    "line1": "1 67140U 25301H   26183.04107715  .00003233  00000+0  45290-3 0  9997",
    "line2": "2 67140  51.9042 292.4720 0000543  89.2835 270.8189 14.79930121 30492"
  },
  {
    "name": "KUIPER-00187",
    "noradId": "67141",
    "line1": "1 67141U 25301J   26183.03839196  .00000731  00000+0  12486-3 0  9993",
    "line2": "2 67141  51.9035 295.0098 0000660  94.1889 265.9149 14.79927124 30452"
  },
  {
    "name": "KUIPER-00188",
    "noradId": "67142",
    "line1": "1 67142U 25301K   26182.63450498  .00001423  00000+0  21561-3 0  9996",
    "line2": "2 67142  51.9018 264.3807 0000586 103.2486 256.8542 14.79930424 30849"
  },
  {
    "name": "KUIPER-00191",
    "noradId": "67143",
    "line1": "1 67143U 25301L   26183.01269789  .00001437  00000+0  21756-3 0  9992",
    "line2": "2 67143  51.9005 287.6126 0000694 102.7506 257.3534 14.79920783 30580"
  },
  {
    "name": "KUIPER-00196",
    "noradId": "67144",
    "line1": "1 67144U 25301M   26182.44685412  .00002211  00000+0  34628-3 0  9997",
    "line2": "2 67144  51.8975 246.1561 0000554 291.6135  68.4767 14.76330619 31085"
  },
  {
    "name": "KUIPER-00204",
    "noradId": "67145",
    "line1": "1 67145U 25301N   26182.94098877 -.00004165  00000+0 -51644-3 0  9995",
    "line2": "2 67145  51.9004 260.4124 0000378 218.3692 141.7243 14.80028445 31048"
  },
  {
    "name": "KUIPER-00210",
    "noradId": "67146",
    "line1": "1 67146U 25301P   26182.97893525  .00001725  00000+0  25527-3 0  9990",
    "line2": "2 67146  51.9001 287.7144 0001048  69.8188 290.2887 14.79929005 30722"
  },
  {
    "name": "KUIPER-00221",
    "noradId": "67147",
    "line1": "1 67147U 25301Q   26182.05918575  .00003945  00000+0  54624-3 0  9999",
    "line2": "2 67147  51.9013 299.3046 0000642  86.7788 273.3248 14.79927841 30313"
  },
  {
    "name": "KUIPER-00232",
    "noradId": "67148",
    "line1": "1 67148U 25301R   26182.98704034  .00001676  00000+0  24883-3 0  9998",
    "line2": "2 67148  51.8989 280.2294 0000560 102.1343 257.9683 14.79930788 30650"
  },
  {
    "name": "KUIPER-00241",
    "noradId": "67149",
    "line1": "1 67149U 25301S   26183.01001693  .00003574  00000+0  49757-3 0  9991",
    "line2": "2 67149  51.9023 290.1210 0000465 107.1280 252.9733 14.79930853 30854"
  },
  {
    "name": "KUIPER-00245",
    "noradId": "67150",
    "line1": "1 67150U 25301T   26182.05651049  .00000348  00000+0  74740-4 0  9999",
    "line2": "2 67150  51.9027 301.8505 0000866 104.0167 256.0892 14.79922524 30275"
  },
  {
    "name": "KUIPER-00246",
    "noradId": "67151",
    "line1": "1 67151U 25301U   26182.98432715  .00002089  00000+0  30287-3 0  9990",
    "line2": "2 67151  51.9001 282.7012 0000607 102.6264 257.4767 14.79934055 30642"
  },
  {
    "name": "KUIPER-00247",
    "noradId": "67152",
    "line1": "1 67152U 25301V   26182.65746269  .00003844  00000+0  53294-3 0  9990",
    "line2": "2 67152  51.8959 274.1240 0000563 106.9424 253.1600 14.79936254 30718"
  },
  {
    "name": "KUIPER-00248",
    "noradId": "67153",
    "line1": "1 67153U 25301W   26183.25003472  .00042192  00000+0  56041-2 0  9991",
    "line2": "2 67153  51.8976 254.1267 0001289  81.5928  98.6676 14.79362351  4412"
  },
  {
    "name": "KUIPER-00249",
    "noradId": "67154",
    "line1": "1 67154U 25301X   26182.93029037  .00000774  00000+0  13052-3 0  9997",
    "line2": "2 67154  51.8991 270.4698 0000606 114.0408 246.0618 14.79927772 30784"
  }
]